{"type":"FeatureCollection","features":[{"type":"Feature","properties":{"name":"Pakistan"},"geometry":{"type":"MultiPolygon","coordinates":[[[[67.307,24.382],[67.315,24.429],[67.356,24.436],[67.388,24.422],[67.343,24.41],[67.368,24.403],[67.422,24.433],[67.408,24.436],[67.415,24.448],[67.375,24.471],[67.331,24.458],[67.337,24.478],[67.324,24.485],[67.323,24.463],[67.268,24.5],[67.289,24.526],[67.298,24.517],[67.291,24.528],[67.277,24.521],[67.271,24.537],[67.249,24.523],[67.25,24.537],[67.246,24.527],[67.219,24.553],[67.226,24.572],[67.278,24.578],[67.296,24.575],[67.306,24.536],[67.295,24.53],[67.308,24.534],[67.304,24.552],[67.352,24.535],[67.302,24.555],[67.297,24.576],[67.316,24.572],[67.322,24.587],[67.312,24.578],[67.299,24.596],[67.315,24.61],[67.295,24.597],[67.29,24.608],[67.302,24.63],[67.34,24.603],[67.324,24.588],[67.355,24.582],[67.341,24.61],[67.383,24.604],[67.378,24.632],[67.445,24.639],[67.417,24.673],[67.437,24.681],[67.429,24.697],[67.368,24.69],[67.42,24.712],[67.379,24.716],[67.393,24.724],[67.344,24.744],[67.373,24.776],[67.393,24.767],[67.384,24.744],[67.407,24.774],[67.43,24.769],[67.373,24.783],[67.328,24.764],[67.292,24.799],[67.295,24.783],[67.272,24.784],[67.292,24.777],[67.262,24.747],[67.239,24.777],[67.255,24.784],[67.204,24.813],[67.182,24.789],[67.15,24.793],[67.122,24.777],[67.088,24.793],[67.084,24.813],[67.079,24.8],[67.105,24.762],[67.081,24.748],[67.025,24.806],[66.986,24.814],[66.984,24.798],[66.973,24.824],[66.989,24.844],[66.968,24.826],[66.982,24.855],[66.969,24.852],[66.967,24.87],[66.916,24.859],[66.914,24.842],[66.963,24.826],[66.954,24.82],[66.982,24.785],[66.912,24.84],[66.854,24.861],[66.823,24.838],[66.756,24.852],[66.672,24.825],[66.653,24.838],[66.679,24.877],[66.72,24.886],[66.707,24.89],[66.726,24.921],[66.694,24.888],[66.677,24.937],[66.701,24.954],[66.701,25.087],[66.735,25.125],[66.747,25.186],[66.685,25.26],[66.549,25.363],[66.549,25.384],[66.574,25.385],[66.568,25.407],[66.555,25.399],[66.563,25.42],[66.586,25.431],[66.559,25.449],[66.562,25.48],[66.543,25.512],[66.438,25.512],[66.426,25.521],[66.436,25.547],[66.398,25.533],[66.41,25.559],[66.398,25.578],[66.343,25.597],[66.277,25.587],[66.246,25.549],[66.346,25.548],[66.353,25.528],[66.385,25.527],[66.43,25.483],[66.486,25.498],[66.524,25.491],[66.526,25.44],[66.488,25.437],[66.526,25.418],[66.514,25.403],[66.371,25.457],[66.285,25.468],[65.968,25.416],[65.827,25.42],[65.773,25.384],[65.641,25.354],[65.46,25.392],[65.418,25.373],[65.27,25.379],[65.243,25.364],[65.227,25.315],[65.192,25.303],[64.871,25.326],[64.723,25.313],[64.675,25.295],[64.643,25.258],[64.638,25.212],[64.697,25.187],[64.585,25.156],[64.578,25.178],[64.618,25.22],[64.573,25.263],[64.512,25.275],[64.477,25.26],[64.473,25.244],[64.402,25.236],[64.225,25.313],[64.091,25.325],[64.09,25.364],[64.118,25.36],[64.071,25.396],[64.12,25.39],[64.104,25.399],[64.125,25.408],[64.15,25.397],[64.143,25.411],[64.16,25.43],[64.138,25.433],[64.179,25.442],[64.157,25.45],[64.182,25.46],[64.12,25.477],[64.08,25.452],[63.997,25.46],[64.016,25.436],[63.981,25.42],[64.003,25.417],[63.969,25.418],[63.958,25.404],[63.981,25.414],[63.995,25.387],[64.042,25.409],[64.042,25.377],[64.057,25.373],[64.034,25.367],[64.072,25.351],[64.054,25.326],[63.89,25.342],[63.693,25.386],[63.573,25.368],[63.498,25.328],[63.478,25.287],[63.451,25.298],[63.478,25.282],[63.478,25.242],[63.506,25.226],[63.495,25.205],[63.125,25.258],[63.005,25.21],[62.793,25.252],[62.531,25.268],[62.474,25.257],[62.458,25.236],[62.473,25.222],[62.39,25.205],[62.347,25.175],[62.328,25.118],[62.34,25.104],[62.385,25.105],[62.375,25.094],[62.259,25.104],[62.317,25.12],[62.307,25.174],[62.251,25.211],[62.161,25.22],[62.092,25.203],[62.06,25.178],[62.053,25.153],[62.094,25.1],[61.894,25.105],[61.864,25.091],[61.854,25.037],[61.779,25.014],[61.725,25.03],[61.743,25.05],[61.736,25.072],[61.769,25.091],[61.758,25.126],[61.744,25.128],[61.78,25.142],[61.782,25.17],[61.776,25.143],[61.745,25.135],[61.731,25.155],[61.739,25.141],[61.67,25.166],[61.663,25.19],[61.683,25.179],[61.701,25.192],[61.696,25.21],[61.734,25.255],[61.694,25.21],[61.7,25.193],[61.682,25.181],[61.662,25.191],[61.667,25.172],[61.578,25.179],[61.61,25.195],[61.664,25.333],[61.681,25.654],[61.707,25.686],[61.689,25.799],[61.771,25.805],[61.78,25.818],[61.848,26.228],[62.061,26.315],[62.121,26.317],[62.132,26.39],[62.283,26.358],[62.291,26.387],[62.256,26.446],[62.283,26.447],[62.309,26.477],[62.306,26.524],[62.411,26.544],[62.435,26.568],[62.608,26.585],[62.779,26.652],[63.169,26.647],[63.203,26.768],[63.192,26.843],[63.281,26.875],[63.257,26.929],[63.256,27.083],[63.317,27.139],[63.299,27.179],[63.184,27.241],[63.059,27.233],[62.952,27.192],[62.783,27.234],[62.781,27.251],[62.833,27.305],[62.807,27.34],[62.855,27.465],[62.82,27.805],[62.768,28.032],[62.797,28.209],[62.792,28.277],[62.592,28.255],[62.44,28.407],[62.296,28.463],[62.043,28.508],[61.804,28.64],[61.64,28.822],[61.504,29.008],[61.506,29.048],[61.478,29.103],[61.416,29.136],[61.429,29.194],[61.383,29.221],[61.358,29.283],[61.373,29.349],[61.193,29.502],[60.899,29.837],[61.924,29.543],[62.397,29.388],[62.482,29.376],[63.116,29.443],[63.3,29.442],[63.375,29.462],[63.665,29.476],[63.97,29.426],[64.094,29.364],[64.136,29.362],[64.174,29.397],[64.165,29.434],[64.189,29.462],[64.243,29.479],[64.27,29.506],[64.327,29.505],[64.446,29.537],[64.455,29.564],[64.488,29.572],[64.632,29.581],[64.917,29.557],[64.961,29.567],[65.067,29.536],[65.787,29.725],[65.786,29.701],[65.875,29.743],[66.267,29.842],[66.285,29.868],[66.275,29.879],[66.362,29.968],[66.238,30.066],[66.258,30.116],[66.303,30.148],[66.297,30.176],[66.333,30.239],[66.353,30.388],[66.38,30.435],[66.356,30.453],[66.376,30.473],[66.364,30.495],[66.294,30.538],[66.321,30.643],[66.385,30.758],[66.359,30.787],[66.39,30.839],[66.428,30.854],[66.482,30.92],[66.457,30.922],[66.457,30.936],[66.593,30.961],[66.632,30.993],[66.655,31.037],[66.697,31.062],[66.741,31.192],[66.73,31.212],[66.793,31.213],[66.857,31.279],[67.013,31.312],[67.007,31.293],[67.042,31.287],[67.014,31.234],[67.062,31.204],[67.159,31.21],[67.305,31.182],[67.497,31.225],[67.506,31.228],[67.472,31.239],[67.763,31.328],[67.79,31.357],[67.771,31.4],[67.741,31.415],[67.634,31.401],[67.598,31.427],[67.595,31.471],[67.554,31.529],[67.595,31.533],[67.608,31.504],[67.73,31.505],[67.861,31.608],[67.97,31.63],[68.054,31.677],[68.122,31.747],[68.109,31.753],[68.169,31.834],[68.177,31.814],[68.259,31.802],[68.251,31.785],[68.287,31.757],[68.422,31.757],[68.537,31.714],[68.582,31.75],[68.433,31.763],[68.57,31.828],[68.632,31.778],[68.702,31.77],[68.717,31.697],[68.774,31.661],[68.805,31.61],[68.901,31.601],[68.949,31.646],[69.021,31.627],[69.031,31.65],[69.118,31.703],[69.198,31.848],[69.318,31.928],[69.273,32.151],[69.281,32.356],[69.241,32.461],[69.285,32.533],[69.385,32.567],[69.465,32.662],[69.451,32.731],[69.403,32.767],[69.449,32.795],[69.475,32.843],[69.535,32.866],[69.515,32.886],[69.493,32.966],[69.5,33.002],[69.591,33.085],[69.58,33.098],[69.705,33.09],[69.787,33.128],[69.856,33.096],[69.901,33.101],[69.946,33.129],[70.025,33.146],[70.067,33.213],[70.093,33.193],[70.157,33.198],[70.184,33.219],[70.17,33.238],[70.208,33.25],[70.29,33.327],[70.333,33.327],[70.327,33.34],[70.342,33.348],[70.328,33.371],[70.342,33.393],[70.314,33.434],[70.229,33.479],[70.196,33.527],[70.219,33.642],[70.165,33.659],[70.155,33.726],[70.004,33.74],[69.973,33.767],[69.971,33.823],[69.911,33.906],[69.872,33.934],[69.885,33.97],[69.91,33.983],[69.91,34.02],[70.01,34.03],[70.075,33.999],[70.169,33.984],[70.169,33.999],[70.239,33.973],[70.426,33.96],[70.436,33.937],[70.479,33.928],[70.594,33.964],[70.768,33.955],[70.824,33.982],[70.885,33.977],[70.918,34.01],[71.065,34.052],[71.073,34.106],[71.145,34.167],[71.137,34.198],[71.152,34.224],[71.135,34.226],[71.122,34.267],[71.171,34.339],[71.17,34.363],[71.076,34.396],[71.007,34.461],[70.996,34.555],[71.028,34.537],[71.098,34.581],[71.129,34.626],[71.107,34.655],[71.112,34.683],[71.233,34.736],[71.232,34.764],[71.246,34.791],[71.279,34.805],[71.31,34.879],[71.329,34.872],[71.361,34.897],[71.525,34.959],[71.526,34.961],[71.561,35.019],[71.561,35.022],[71.588,35.027],[71.553,35.044],[71.536,35.09],[71.689,35.207],[71.687,35.225],[71.638,35.243],[71.567,35.312],[71.671,35.432],[71.62,35.511],[71.646,35.564],[71.617,35.589],[71.525,35.618],[71.577,35.699],[71.565,35.729],[71.495,35.768],[71.519,35.797],[71.497,35.813],[71.48,35.858],[71.406,35.911],[71.392,35.96],[71.372,35.974],[71.337,35.969],[71.247,36.025],[71.227,36.06],[71.316,36.152],[71.356,36.158],[71.391,36.193],[71.446,36.213],[71.465,36.261],[71.618,36.323],[71.61,36.349],[71.575,36.373],[71.651,36.436],[71.655,36.477],[71.796,36.401],[71.857,36.399],[71.862,36.429],[71.819,36.442],[71.832,36.505],[71.909,36.505],[71.935,36.561],[72.013,36.568],[72.097,36.597],[72.103,36.649],[72.213,36.665],[72.197,36.694],[72.241,36.753],[72.303,36.745],[72.411,36.777],[72.495,36.778],[72.545,36.823],[72.632,36.848],[72.883,36.841],[73.188,36.877],[73.321,36.852],[73.446,36.883],[73.657,36.89],[73.642,36.904],[73.84,36.909],[74.028,36.847],[74.12,36.842],[74.152,36.91],[74.252,36.9],[74.421,36.996],[74.517,36.999],[74.558,36.96],[74.572,37.034],[74.611,37.05],[74.612,37.083],[74.677,37.097],[74.742,37.022],[74.832,37.062],[74.851,36.988],[74.922,36.935],[75.025,37.011],[75.147,37.02],[75.166,36.989],[75.23,36.96],[75.299,36.965],[75.41,36.935],[75.389,36.91],[75.417,36.878],[75.423,36.772],[75.454,36.722],[75.531,36.723],[75.533,36.762],[75.546,36.767],[75.652,36.769],[75.73,36.746],[75.919,36.62],[75.933,36.549],[76.008,36.453],[76.025,36.409],[76.025,36.389],[75.987,36.348],[75.988,36.293],[76.01,36.289],[76.056,36.227],[76.006,36.221],[76.002,36.186],[76.019,36.167],[75.966,36.16],[75.937,36.134],[75.946,36.069],[76.002,36.018],[76.092,36.014],[76.162,35.928],[76.175,35.833],[76.222,35.851],[76.349,35.833],[76.393,35.871],[76.449,35.871],[76.567,35.918],[76.591,35.893],[76.578,35.819],[76.596,35.785],[76.666,35.758],[76.752,35.674],[76.852,35.671],[76.954,35.606],[77.057,35.599],[77.094,35.567],[77.187,35.528],[77.312,35.531],[77.401,35.469],[77.536,35.496],[77.623,35.477],[77.696,35.48],[77.798,35.517],[77.841,35.504],[77.651,35.367],[77.157,35.055],[77.068,35.024],[77.018,35.038],[76.997,34.939],[76.97,34.936],[76.87,34.972],[76.811,34.935],[76.749,34.927],[76.743,34.84],[76.682,34.76],[76.562,34.758],[76.474,34.794],[76.386,34.736],[76.316,34.732],[76.275,34.694],[76.158,34.643],[76.036,34.67],[75.992,34.63],[75.946,34.631],[75.749,34.516],[75.378,34.552],[75.262,34.611],[75.25,34.647],[75.142,34.662],[75.019,34.641],[74.911,34.683],[74.728,34.689],[74.671,34.701],[74.58,34.77],[74.307,34.8],[74.28,34.768],[74.142,34.691],[74.049,34.685],[74.013,34.71],[73.96,34.697],[73.927,34.646],[73.948,34.573],[73.895,34.547],[73.887,34.515],[73.899,34.496],[73.777,34.416],[73.763,34.36],[73.773,34.35],[73.807,34.357],[73.842,34.338],[73.899,34.36],[73.976,34.265],[73.977,34.212],[73.904,34.122],[73.898,34.033],[74.006,34.022],[74.124,34.055],[74.215,34.039],[74.249,34.014],[74.263,33.955],[74.246,33.895],[74.22,33.867],[74.143,33.83],[74.066,33.82],[73.956,33.72],[74.028,33.575],[74.096,33.57],[74.187,33.456],[74.171,33.347],[74.103,33.271],[74.024,33.262],[74.014,33.198],[74.083,33.181],[74.149,33.134],[74.205,33.043],[74.255,33.049],[74.35,33.016],[74.353,32.983],[74.318,32.92],[74.414,32.904],[74.472,32.778],[74.398,32.8],[74.532,32.741],[74.614,32.758],[74.642,32.792],[74.638,32.818],[74.697,32.84],[74.65,32.718],[74.676,32.658],[74.642,32.611],[74.662,32.551],[74.681,32.538],[74.687,32.493],[74.747,32.479],[74.835,32.496],[74.973,32.448],[75.03,32.492],[75.083,32.48],[75.128,32.421],[75.189,32.424],[75.195,32.405],[75.232,32.399],[75.33,32.332],[75.34,32.289],[75.367,32.269],[75.359,32.227],[75.314,32.215],[75.333,32.205],[75.272,32.113],[75.233,32.084],[75.223,32.113],[75.199,32.117],[75.164,32.068],[75.116,32.083],[75.092,32.059],[75.005,32.029],[74.926,32.066],[74.872,32.051],[74.865,32.024],[74.818,31.997],[74.809,31.955],[74.748,31.952],[74.736,31.937],[74.709,31.958],[74.703,31.925],[74.66,31.918],[74.623,31.881],[74.6,31.886],[74.556,31.829],[74.552,31.753],[74.518,31.741],[74.517,31.723],[74.601,31.568],[74.604,31.534],[74.566,31.502],[74.626,31.487],[74.642,31.46],[74.552,31.298],[74.53,31.299],[74.511,31.272],[74.522,31.248],[74.505,31.139],[74.542,31.123],[74.566,31.084],[74.596,31.091],[74.595,31.135],[74.625,31.137],[74.631,31.121],[74.677,31.131],[74.694,31.098],[74.683,31.072],[74.6,31.044],[74.558,31.068],[74.532,31.013],[74.538,30.994],[74.471,30.966],[74.416,30.906],[74.366,30.885],[74.363,30.846],[74.316,30.848],[74.286,30.8],[74.297,30.783],[74.262,30.768],[74.282,30.73],[74.232,30.72],[74.151,30.633],[74.118,30.632],[74.109,30.606],[74.091,30.613],[74.093,30.575],[74.068,30.555],[74.078,30.529],[74.061,30.521],[74.034,30.536],[73.984,30.501],[73.963,30.458],[73.935,30.463],[73.928,30.421],[73.903,30.417],[73.871,30.369],[73.958,30.262],[73.958,30.186],[73.787,30.066],[73.611,30.022],[73.391,29.938],[73.271,29.557],[73.089,29.249],[73.0,29.147],[72.942,29.027],[72.711,28.935],[72.385,28.764],[72.302,28.665],[72.184,28.358],[71.996,28.207],[71.933,28.127],[71.897,27.957],[71.658,27.869],[71.381,27.862],[71.125,27.792],[70.907,27.701],[70.758,27.717],[70.678,27.839],[70.661,27.931],[70.53,28.032],[70.366,28.008],[70.157,27.834],[70.108,27.767],[70.016,27.556],[69.936,27.502],[69.862,27.403],[69.587,27.178],[69.513,27.017],[69.484,26.806],[69.515,26.74],[69.722,26.654],[69.815,26.592],[69.879,26.581],[70.066,26.599],[70.168,26.551],[70.184,26.487],[70.173,26.245],[70.145,26.166],[70.083,26.074],[70.096,25.944],[70.178,25.819],[70.245,25.766],[70.28,25.701],[70.4,25.664],[70.536,25.677],[70.617,25.707],[70.666,25.697],[70.681,25.661],[70.676,25.524],[70.688,25.517],[70.674,25.389],[70.744,25.321],[70.766,25.265],[70.894,25.144],[70.945,24.935],[71.107,24.681],[71.001,24.599],[71.015,24.523],[71.007,24.447],[71.119,24.431],[71.134,24.414],[71.125,24.393],[71.047,24.347],[70.998,24.361],[70.96,24.346],[70.885,24.291],[70.894,24.257],[70.726,24.221],[70.574,24.252],[70.588,24.285],[70.572,24.294],[70.587,24.31],[70.572,24.345],[70.612,24.401],[70.56,24.419],[70.119,24.291],[70.059,24.193],[69.979,24.165],[69.725,24.175],[69.601,24.278],[69.501,24.255],[69.432,24.274],[69.31,24.277],[69.2,24.235],[69.093,24.269],[69.001,24.226],[68.971,24.238],[68.947,24.277],[68.888,24.196],[68.848,24.208],[68.826,24.308],[68.764,24.284],[68.749,23.962],[68.547,23.963],[68.548,23.988],[68.534,23.952],[68.508,23.954],[68.496,24.012],[68.441,23.991],[68.429,24.005],[68.392,23.968],[68.383,23.992],[68.363,23.993],[68.334,23.97],[68.328,23.93],[68.291,23.944],[68.289,23.958],[68.246,23.905],[68.2,23.885],[68.184,23.853],[68.149,23.855],[68.155,23.903],[68.147,23.852],[68.134,23.85],[68.114,23.858],[68.127,23.903],[68.109,23.96],[68.122,23.916],[68.112,23.858],[68.123,23.85],[68.079,23.845],[68.053,23.89],[68.098,23.924],[68.107,23.968],[68.118,23.971],[68.097,23.97],[68.088,24.002],[68.053,24.023],[68.053,24.045],[68.033,24.006],[67.994,24.037],[67.948,24.023],[67.932,24.058],[67.849,24.094],[67.794,24.063],[67.753,24.085],[67.719,24.047],[67.739,24.06],[67.738,24.042],[67.754,24.081],[67.792,24.059],[67.846,24.088],[67.871,24.077],[67.874,24.012],[67.88,24.073],[67.932,24.042],[67.952,23.995],[67.912,23.985],[67.869,24.004],[67.863,23.995],[67.902,23.977],[67.831,23.898],[67.824,23.919],[67.835,23.839],[67.809,23.815],[67.777,23.814],[67.751,23.849],[67.769,23.852],[67.744,23.854],[67.737,23.84],[67.708,23.87],[67.732,23.874],[67.743,23.856],[67.75,23.872],[67.697,23.932],[67.715,23.963],[67.734,23.954],[67.717,23.967],[67.735,23.988],[67.726,24.021],[67.662,23.998],[67.678,23.992],[67.71,24.014],[67.732,23.988],[67.711,23.98],[67.691,23.936],[67.65,23.938],[67.677,23.957],[67.662,23.998],[67.649,23.983],[67.673,23.96],[67.613,23.93],[67.61,23.903],[67.64,23.932],[67.628,23.849],[67.612,23.859],[67.622,23.872],[67.609,23.894],[67.608,23.882],[67.582,23.897],[67.6,23.976],[67.578,23.94],[67.546,23.957],[67.507,23.919],[67.487,23.924],[67.496,23.967],[67.512,23.976],[67.496,24.003],[67.499,23.975],[67.485,23.97],[67.448,23.989],[67.538,24.072],[67.646,24.059],[67.677,24.087],[67.714,24.044],[67.676,24.089],[67.641,24.065],[67.547,24.08],[67.487,24.037],[67.461,24.085],[67.41,24.064],[67.407,24.082],[67.432,24.089],[67.448,24.121],[67.449,24.149],[67.432,24.139],[67.417,24.177],[67.451,24.172],[67.414,24.179],[67.43,24.138],[67.393,24.13],[67.404,24.148],[67.378,24.137],[67.353,24.161],[67.367,24.158],[67.356,24.172],[67.386,24.181],[67.353,24.183],[67.364,24.181],[67.342,24.162],[67.337,24.207],[67.351,24.205],[67.34,24.222],[67.352,24.235],[67.413,24.23],[67.416,24.201],[67.428,24.198],[67.418,24.202],[67.421,24.237],[67.348,24.257],[67.37,24.29],[67.33,24.248],[67.301,24.287],[67.31,24.309],[67.297,24.303],[67.339,24.34],[67.437,24.297],[67.481,24.294],[67.468,24.315],[67.512,24.339],[67.528,24.332],[67.514,24.354],[67.483,24.324],[67.459,24.333],[67.465,24.345],[67.446,24.339],[67.45,24.354],[67.44,24.322],[67.37,24.347],[67.386,24.36],[67.372,24.352],[67.368,24.384],[67.407,24.367],[67.371,24.383],[67.39,24.394],[67.439,24.376],[67.432,24.356],[67.473,24.378],[67.472,24.423],[67.451,24.427],[67.467,24.422],[67.47,24.38],[67.441,24.364],[67.45,24.392],[67.438,24.378],[67.413,24.388],[67.437,24.418],[67.412,24.388],[67.382,24.398],[67.359,24.386],[67.361,24.351],[67.31,24.361],[67.308,24.377],[67.334,24.382],[67.307,24.382]],[[69.324,31.93],[69.321,31.93],[69.318,31.93],[69.324,31.93]],[[71.549,34.934],[71.537,34.953],[71.526,34.961],[71.549,34.934]],[[67.338,24.383],[67.351,24.385],[67.345,24.392],[67.338,24.383]],[[67.352,24.495],[67.328,24.51],[67.352,24.474],[67.381,24.538],[67.362,24.531],[67.352,24.495]],[[67.314,24.482],[67.317,24.484],[67.317,24.493],[67.314,24.482]],[[67.342,24.523],[67.315,24.529],[67.305,24.509],[67.317,24.496],[67.317,24.525],[67.342,24.523]],[[67.316,24.602],[67.317,24.603],[67.317,24.603],[67.316,24.602]],[[69.532,31.951],[69.556,31.956],[69.565,31.965],[69.532,31.951]],[[69.744,32.07],[69.671,32.053],[69.662,32.045],[69.744,32.07]],[[69.894,32.067],[69.886,32.073],[69.763,32.074],[69.894,32.067]],[[69.784,31.989],[69.784,31.982],[69.795,32.017],[69.784,31.989]],[[69.792,31.971],[69.868,31.958],[69.784,31.982],[69.792,31.971]],[[69.869,31.892],[69.871,31.952],[69.868,31.958],[69.869,31.892]],[[69.869,31.881],[69.853,31.869],[69.884,31.888],[69.869,31.881]],[[69.87,31.864],[69.915,31.894],[69.86,31.868],[69.87,31.864]],[[69.899,31.822],[69.896,31.801],[69.922,31.885],[69.899,31.822]],[[69.888,31.602],[69.897,31.647],[69.897,31.664],[69.888,31.602]],[[69.942,31.486],[69.957,31.482],[69.923,31.497],[69.942,31.486]],[[69.983,31.334],[69.994,31.312],[69.957,31.482],[69.983,31.334]],[[70.009,31.314],[70.026,31.376],[70.0,31.308],[70.009,31.314]],[[70.052,31.406],[70.046,31.411],[70.035,31.402],[70.052,31.406]],[[70.192,31.479],[70.134,31.433],[70.119,31.416],[70.192,31.479]],[[70.21,31.447],[70.209,31.455],[70.205,31.474],[70.21,31.447]],[[70.189,31.124],[70.189,31.117],[70.199,31.2],[70.189,31.124]],[[70.237,30.983],[70.241,31.009],[70.243,31.047],[70.237,30.983]],[[70.202,30.844],[70.196,30.834],[70.224,30.842],[70.202,30.844]],[[70.092,30.733],[70.07,30.717],[70.094,30.734],[70.092,30.733]],[[70.071,30.654],[70.08,30.634],[70.071,30.668],[70.071,30.654]],[[70.033,30.55],[70.069,30.594],[70.08,30.634],[70.033,30.55]],[[69.924,30.306],[69.92,30.298],[69.94,30.332],[69.924,30.306]],[[70.048,30.271],[69.941,30.251],[69.938,30.245],[70.048,30.271]],[[70.03,30.221],[70.041,30.232],[70.044,30.243],[70.03,30.221]],[[70.005,30.181],[69.999,30.15],[70.015,30.198],[70.005,30.181]],[[69.759,29.789],[69.693,29.736],[69.772,29.794],[69.759,29.789]],[[69.586,29.672],[69.58,29.656],[69.604,29.705],[69.586,29.672]],[[69.528,29.449],[69.528,29.431],[69.565,29.544],[69.528,29.449]],[[69.617,29.347],[69.613,29.333],[69.637,29.387],[69.617,29.347]],[[69.632,29.308],[69.627,29.323],[69.613,29.333],[69.632,29.308]],[[69.669,29.123],[69.672,29.105],[69.679,29.137],[69.669,29.123]],[[69.549,29.008],[69.542,28.983],[69.609,29.088],[69.549,29.008]],[[69.464,28.942],[69.453,28.924],[69.497,28.959],[69.464,28.942]],[[69.44,28.875],[69.434,28.865],[69.453,28.924],[69.44,28.875]],[[69.41,28.681],[69.463,28.774],[69.486,28.818],[69.41,28.681]],[[69.278,28.581],[69.262,28.57],[69.373,28.613],[69.278,28.581]],[[68.504,28.446],[68.466,28.439],[69.29,28.456],[68.504,28.446]],[[68.431,28.419],[68.386,28.348],[68.367,28.316],[68.431,28.419]],[[68.258,28.275],[68.198,28.252],[68.367,28.316],[68.258,28.275]],[[68.11,28.18],[68.158,28.211],[68.198,28.252],[68.11,28.18]],[[67.591,27.92],[67.71,27.933],[67.759,27.944],[67.591,27.92]],[[67.235,27.579],[67.212,27.555],[67.278,27.627],[67.235,27.579]],[[67.205,27.475],[67.206,27.486],[67.212,27.555],[67.205,27.475]],[[67.162,27.348],[67.188,27.38],[67.191,27.398],[67.162,27.348]],[[67.177,27.177],[67.169,27.244],[67.144,27.3],[67.177,27.177]],[[67.167,26.964],[67.165,26.93],[67.168,26.968],[67.167,26.964]],[[67.177,26.578],[67.2,26.512],[67.159,26.685],[67.177,26.578]],[[67.273,26.386],[67.225,26.475],[67.2,26.512],[67.273,26.386]],[[67.45,26.052],[67.454,26.09],[67.446,26.113],[67.45,26.052]],[[67.461,25.876],[67.459,25.903],[67.438,25.947],[67.461,25.876]],[[67.387,25.763],[67.379,25.744],[67.414,25.802],[67.387,25.763]],[[67.336,25.634],[67.335,25.63],[67.336,25.634],[67.336,25.634]],[[67.302,25.597],[67.324,25.618],[67.335,25.63],[67.302,25.597]],[[67.15,25.429],[67.163,25.451],[67.17,25.468],[67.15,25.429]],[[67.081,25.259],[67.092,25.254],[67.08,25.262],[67.081,25.259]],[[66.98,25.081],[66.998,25.102],[67.027,25.157],[66.98,25.081]],[[66.928,25.042],[66.921,25.037],[66.929,25.043],[66.928,25.042]],[[66.762,24.987],[66.742,24.976],[66.849,25.014],[66.762,24.987]],[[66.473,25.538],[66.473,25.538],[66.473,25.539],[66.473,25.538]],[[67.372,24.212],[67.39,24.211],[67.39,24.211],[67.372,24.212]],[[67.369,24.202],[67.366,24.194],[67.379,24.187],[67.369,24.202]],[[67.387,24.183],[67.387,24.184],[67.382,24.185],[67.387,24.183]],[[67.417,24.296],[67.437,24.269],[67.427,24.254],[67.423,24.22],[67.44,24.269],[67.482,24.268],[67.489,24.242],[67.505,24.235],[67.489,24.25],[67.513,24.272],[67.491,24.255],[67.483,24.271],[67.417,24.296]],[[67.408,24.285],[67.392,24.284],[67.414,24.296],[67.396,24.297],[67.382,24.281],[67.402,24.273],[67.408,24.285]],[[67.403,24.271],[67.41,24.261],[67.416,24.262],[67.403,24.271]],[[67.428,24.759],[67.399,24.751],[67.402,24.738],[67.424,24.743],[67.428,24.759]],[[67.766,24.016],[67.738,24.036],[67.729,24.022],[67.765,24.016],[67.76,23.98],[67.766,24.016]],[[67.51,23.99],[67.514,23.977],[67.519,23.979],[67.51,23.99]],[[67.544,23.992],[67.545,23.993],[67.545,23.993],[67.544,23.992]],[[70.225,31.077],[70.231,31.098],[70.226,31.116],[70.225,31.077]],[[70.227,31.154],[70.36,31.188],[70.372,31.192],[70.246,31.166],[70.227,31.154]],[[70.4,31.244],[70.41,31.264],[70.389,31.242],[70.4,31.244]],[[70.443,31.288],[70.439,31.288],[70.431,31.286],[70.443,31.288]],[[70.544,31.326],[70.609,31.309],[70.654,31.314],[70.544,31.326]],[[70.752,31.298],[70.772,31.301],[70.725,31.306],[70.752,31.298]],[[70.808,31.382],[70.809,31.389],[70.797,31.357],[70.808,31.382]],[[70.852,31.421],[70.861,31.441],[70.809,31.389],[70.852,31.421]],[[70.857,31.499],[70.85,31.496],[70.851,31.492],[70.857,31.499]],[[70.849,31.541],[70.86,31.571],[70.865,31.579],[70.848,31.56],[70.849,31.541]],[[70.862,31.624],[70.862,31.592],[70.865,31.579],[70.862,31.624]],[[70.939,31.752],[70.869,31.669],[70.861,31.655],[70.939,31.752]],[[71.061,31.961],[71.064,31.998],[71.057,31.954],[71.061,31.961]],[[71.09,32.034],[71.1,32.045],[71.103,32.062],[71.09,32.034]],[[71.118,32.139],[71.157,32.153],[71.164,32.156],[71.128,32.148],[71.118,32.139]],[[71.192,32.254],[71.269,32.337],[71.275,32.343],[71.192,32.254]],[[71.335,32.357],[71.293,32.357],[71.275,32.343],[71.335,32.357]],[[71.348,32.419],[71.341,32.381],[71.346,32.37],[71.348,32.419]],[[71.335,32.429],[71.362,32.493],[71.362,32.508],[71.339,32.444],[71.335,32.429]],[[71.121,32.774],[71.137,32.796],[71.148,32.806],[71.124,32.79],[71.121,32.774]],[[71.18,32.941],[71.167,32.925],[71.165,32.909],[71.18,32.941]],[[71.205,32.969],[71.234,32.983],[71.21,32.974],[71.205,32.969]],[[71.336,32.986],[71.37,32.989],[71.321,32.995],[71.336,32.986]],[[71.39,32.987],[71.48,33.024],[71.506,33.04],[71.399,32.993],[71.39,32.987]],[[71.529,33.217],[71.422,33.217],[71.408,33.216],[71.529,33.217]],[[71.604,33.18],[71.62,33.108],[71.632,33.086],[71.608,33.163],[71.604,33.18]],[[71.696,33.053],[71.71,33.051],[71.657,33.073],[71.696,33.053]],[[71.762,33.169],[71.764,33.19],[71.738,33.137],[71.762,33.169]],[[71.711,33.256],[71.731,33.313],[71.737,33.357],[71.71,33.271],[71.711,33.256]],[[71.77,33.371],[71.761,33.368],[71.737,33.357],[71.77,33.371]],[[71.878,33.44],[71.942,33.489],[71.961,33.502],[71.892,33.454],[71.878,33.44]],[[71.984,33.585],[71.992,33.635],[71.976,33.554],[71.984,33.585]],[[72.013,33.677],[72.004,33.662],[71.992,33.635],[72.013,33.677]],[[72.333,33.928],[72.265,33.905],[72.256,33.9],[72.333,33.928]],[[72.371,33.94],[72.401,33.976],[72.417,33.994],[72.383,33.955],[72.371,33.94]],[[72.543,33.961],[72.532,33.988],[72.527,33.993],[72.543,33.961]],[[72.664,33.864],[72.644,33.871],[72.623,33.878],[72.664,33.864]],[[72.87,33.802],[72.835,33.786],[72.832,33.772],[72.856,33.793],[72.87,33.802]],[[72.88,33.754],[72.898,33.753],[72.876,33.757],[72.88,33.754]],[[72.78,33.708],[72.778,33.705],[72.856,33.727],[72.78,33.708]],[[72.858,33.576],[72.799,33.657],[72.828,33.61],[72.858,33.576]],[[73.107,33.51],[73.163,33.494],[73.09,33.522],[73.107,33.51]],[[73.218,33.556],[73.245,33.594],[73.163,33.494],[73.218,33.556]],[[73.264,33.657],[73.254,33.656],[73.25,33.652],[73.264,33.657]],[[73.28,33.657],[73.331,33.7],[73.334,33.703],[73.29,33.667],[73.28,33.657]],[[73.254,33.732],[73.256,33.725],[73.266,33.709],[73.254,33.732]],[[73.312,33.87],[73.334,33.882],[73.306,33.868],[73.312,33.87]],[[73.343,33.904],[73.337,33.898],[73.334,33.882],[73.343,33.904]],[[73.438,33.984],[73.457,34.006],[73.412,33.978],[73.438,33.984]],[[73.502,34.024],[73.513,34.042],[73.48,34.021],[73.502,34.024]],[[73.482,34.204],[73.471,34.233],[73.513,34.042],[73.482,34.204]],[[73.503,33.968],[73.497,33.977],[73.492,33.983],[73.503,33.968]],[[73.539,33.894],[73.541,33.904],[73.541,33.907],[73.539,33.894]],[[73.563,33.751],[73.536,33.665],[73.537,33.657],[73.564,33.729],[73.563,33.751]],[[73.564,33.61],[73.551,33.636],[73.537,33.657],[73.564,33.61]],[[73.597,33.544],[73.58,33.521],[73.575,33.508],[73.59,33.531],[73.597,33.544]],[[73.582,33.497],[73.582,33.5],[73.575,33.508],[73.582,33.497]],[[73.542,33.409],[73.539,33.395],[73.572,33.449],[73.542,33.409]],[[73.58,33.307],[73.547,33.373],[73.606,33.218],[73.58,33.307]],[[73.586,33.151],[73.584,33.144],[73.606,33.218],[73.586,33.151]],[[73.746,33.028],[73.754,32.98],[73.762,32.976],[73.746,33.028]],[[73.832,33.015],[73.823,33.017],[73.82,33.017],[73.832,33.015]],[[73.926,33.002],[73.953,32.95],[73.964,32.943],[73.936,32.99],[73.926,33.002]],[[74.017,32.938],[74.031,32.928],[74.144,32.9],[74.017,32.938]],[[74.167,32.875],[74.183,32.866],[74.144,32.9],[74.167,32.875]],[[74.238,32.85],[74.253,32.846],[74.223,32.854],[74.238,32.85]],[[74.275,32.813],[74.312,32.786],[74.253,32.846],[74.275,32.813]],[[67.462,24.242],[67.46,24.244],[67.467,24.233],[67.462,24.242]],[[69.397,28.469],[69.395,28.468],[69.39,28.456],[69.397,28.469]],[[69.508,28.493],[69.474,28.496],[69.459,28.49],[69.508,28.493]],[[69.785,28.355],[69.714,28.41],[69.72,28.394],[69.785,28.355]],[[69.894,28.026],[69.864,28.059],[69.836,28.088],[69.894,28.026]],[[69.991,27.938],[69.964,27.949],[70.048,27.901],[69.991,27.938]],[[67.172,24.803],[67.172,24.803],[67.173,24.803],[67.172,24.803]],[[67.538,24.315],[67.529,24.33],[67.525,24.314],[67.538,24.315]],[[67.518,24.283],[67.519,24.283],[67.519,24.287],[67.518,24.283]],[[67.493,24.292],[67.508,24.306],[67.508,24.306],[67.493,24.292]],[[67.461,24.19],[67.444,24.215],[67.444,24.215],[67.435,24.196],[67.461,24.19]],[[67.532,24.371],[67.532,24.371],[67.531,24.37],[67.532,24.371]],[[72.961,33.736],[73.145,33.803],[73.056,33.781],[72.961,33.736]],[[71.623,34.819],[71.616,34.83],[71.62,34.822],[71.623,34.819]],[[71.757,34.804],[71.75,34.804],[71.752,34.804],[71.757,34.804]],[[71.761,34.802],[71.799,34.775],[71.799,34.772],[71.798,34.78],[71.79,34.793],[71.761,34.802]],[[71.772,34.683],[71.799,34.758],[71.799,34.772],[71.772,34.683]],[[71.689,34.631],[71.706,34.64],[71.693,34.634],[71.689,34.631]],[[71.651,34.545],[71.658,34.564],[71.653,34.553],[71.651,34.545]],[[71.668,34.487],[71.669,34.484],[71.651,34.545],[71.668,34.487]],[[71.649,34.38],[71.667,34.406],[71.619,34.362],[71.649,34.38]],[[71.463,34.203],[71.51,34.229],[71.498,34.223],[71.463,34.203]],[[71.401,34.126],[71.39,34.091],[71.463,34.203],[71.401,34.126]],[[71.391,34.048],[71.384,34.023],[71.405,33.946],[71.391,34.048]],[[71.505,33.802],[71.499,33.808],[71.505,33.776],[71.505,33.802]],[[71.485,33.746],[71.503,33.75],[71.379,33.752],[71.485,33.746]],[[71.252,33.668],[71.275,33.659],[71.229,33.688],[71.252,33.668]],[[71.145,33.732],[71.2,33.719],[71.157,33.735],[71.145,33.732]],[[71.166,33.642],[71.158,33.666],[71.158,33.665],[71.166,33.642]],[[71.105,33.621],[71.121,33.63],[71.105,33.623],[71.105,33.621]],[[71.107,33.588],[71.115,33.592],[71.105,33.612],[71.107,33.588]],[[70.77,33.576],[70.995,33.545],[70.793,33.581],[70.77,33.576]],[[70.737,33.479],[70.749,33.555],[70.739,33.498],[70.737,33.479]],[[70.677,33.475],[70.644,33.471],[70.737,33.479],[70.677,33.475]],[[70.521,33.424],[70.505,33.414],[70.613,33.432],[70.521,33.424]],[[70.55,33.336],[70.502,33.398],[70.512,33.375],[70.55,33.336]],[[70.679,33.253],[70.646,33.262],[70.671,33.253],[70.679,33.253]],[[70.678,33.227],[70.69,33.217],[70.679,33.253],[70.678,33.227]],[[70.865,33.198],[70.771,33.214],[70.69,33.217],[70.865,33.198]],[[70.861,33.158],[70.873,33.183],[70.835,33.128],[70.861,33.158]],[[70.417,32.848],[70.447,32.894],[70.43,32.872],[70.417,32.848]],[[70.471,32.627],[70.375,32.731],[70.459,32.64],[70.471,32.627]],[[70.29,32.632],[70.28,32.633],[70.471,32.627],[70.29,32.632]],[[70.19,32.619],[70.164,32.609],[70.217,32.612],[70.19,32.619]],[[70.102,32.502],[70.078,32.438],[70.143,32.587],[70.102,32.502]],[[70.078,32.413],[70.076,32.431],[70.076,32.427],[70.078,32.413]],[[70.088,32.326],[70.04,32.253],[70.043,32.251],[70.081,32.31],[70.088,32.326]],[[70.055,32.166],[70.067,32.194],[70.058,32.186],[70.055,32.166]],[[70.084,32.111],[70.075,32.135],[70.055,32.166],[70.084,32.111]],[[70.198,31.853],[70.194,31.87],[70.193,31.838],[70.198,31.853]],[[70.201,31.747],[70.19,31.765],[70.206,31.733],[70.201,31.747]],[[70.308,31.478],[70.285,31.536],[70.312,31.443],[70.308,31.478]],[[73.399,34.357],[73.433,34.512],[73.399,34.362],[73.399,34.357]],[[73.443,34.555],[73.448,34.559],[73.446,34.559],[73.443,34.555]],[[73.637,34.565],[73.587,34.587],[73.582,34.588],[73.637,34.565]],[[73.663,34.616],[73.673,34.64],[73.674,34.646],[73.663,34.616]],[[73.7,34.721],[73.667,34.697],[73.664,34.694],[73.7,34.721]],[[73.713,34.744],[73.73,34.778],[73.726,34.775],[73.713,34.744]],[[73.903,34.826],[73.84,34.828],[73.834,34.827],[73.903,34.826]],[[74.083,35.015],[74.06,34.999],[74.056,34.996],[74.083,35.015]],[[74.062,35.067],[74.062,35.061],[74.07,35.049],[74.062,35.067]],[[74.069,35.093],[74.064,35.079],[74.086,35.103],[74.069,35.093]],[[74.399,35.117],[74.421,35.115],[74.32,35.135],[74.399,35.117]],[[74.461,35.08],[74.434,35.104],[74.421,35.115],[74.461,35.08]],[[74.489,35.079],[74.629,35.149],[74.639,35.155],[74.489,35.079]],[[74.658,35.135],[74.778,35.061],[74.815,35.047],[74.658,35.135]],[[74.794,35.001],[74.791,34.915],[74.801,35.021],[74.794,35.001]],[[74.81,34.941],[74.826,34.936],[74.828,34.935],[74.81,34.941]],[[74.886,34.897],[74.904,34.889],[74.848,34.929],[74.886,34.897]],[[75.035,34.842],[75.057,34.806],[75.065,34.797],[75.035,34.842]],[[75.209,34.859],[75.245,34.907],[75.226,34.888],[75.209,34.859]],[[75.281,34.874],[75.286,34.86],[75.347,34.812],[75.281,34.874]],[[75.354,34.644],[75.374,34.613],[75.396,34.591],[75.354,34.644]],[[75.422,34.577],[75.413,34.584],[75.396,34.591],[75.422,34.577]],[[73.693,36.85],[73.696,36.847],[73.687,36.857],[73.693,36.85]],[[73.785,36.825],[73.781,36.829],[73.797,36.803],[73.785,36.825]],[[73.805,36.803],[73.804,36.803],[73.797,36.803],[73.805,36.803]],[[73.843,36.788],[73.834,36.793],[73.846,36.781],[73.843,36.788]],[[73.863,36.748],[73.857,36.76],[73.862,36.741],[73.863,36.748]],[[73.848,36.708],[73.851,36.711],[73.854,36.719],[73.848,36.708]],[[73.775,36.721],[73.768,36.721],[73.792,36.717],[73.775,36.721]],[[73.754,36.72],[73.762,36.72],[73.768,36.721],[73.754,36.72]],[[73.653,36.703],[73.687,36.715],[73.594,36.707],[73.653,36.703]],[[73.582,36.71],[73.586,36.707],[73.563,36.729],[73.582,36.71]],[[73.557,36.729],[73.557,36.729],[73.563,36.729],[73.557,36.729]],[[73.477,36.728],[73.483,36.727],[73.407,36.752],[73.477,36.728]],[[73.242,36.711],[73.248,36.711],[73.157,36.723],[73.242,36.711]],[[73.047,36.671],[73.048,36.667],[73.054,36.681],[73.047,36.671]],[[73.057,36.575],[73.071,36.6],[73.073,36.605],[73.057,36.575]],[[73.032,36.535],[73.036,36.538],[72.964,36.498],[73.032,36.535]],[[72.964,36.488],[72.965,36.494],[72.964,36.498],[72.964,36.488]],[[72.955,36.469],[72.96,36.471],[72.875,36.453],[72.955,36.469]],[[72.713,36.306],[72.709,36.303],[72.847,36.373],[72.713,36.306]],[[72.703,36.295],[72.706,36.3],[72.709,36.303],[72.703,36.295]],[[72.649,36.263],[72.672,36.263],[72.677,36.264],[72.649,36.263]],[[72.576,36.25],[72.59,36.261],[72.583,36.259],[72.576,36.25]],[[72.544,36.153],[72.549,36.216],[72.54,36.202],[72.544,36.153]],[[72.519,36.091],[72.542,36.14],[72.544,36.145],[72.519,36.091]],[[72.565,36.002],[72.567,36.008],[72.513,35.9],[72.565,36.002]],[[72.554,35.864],[72.517,35.897],[72.513,35.9],[72.554,35.864]],[[72.57,35.849],[72.573,35.848],[72.568,35.852],[72.57,35.849]],[[72.671,35.818],[72.677,35.817],[72.639,35.828],[72.671,35.818]],[[72.806,35.855],[72.811,35.857],[72.783,35.849],[72.806,35.855]],[[72.971,35.834],[72.976,35.834],[72.811,35.857],[72.971,35.834]],[[73.087,35.862],[73.082,35.864],[72.976,35.834],[73.087,35.862]],[[73.125,35.834],[73.124,35.839],[73.112,35.76],[73.125,35.834]],[[73.134,35.711],[73.136,35.709],[73.128,35.725],[73.134,35.711]],[[73.407,35.575],[73.414,35.573],[73.35,35.593],[73.407,35.575]],[[73.79,35.516],[73.78,35.522],[73.414,35.573],[73.79,35.516]],[[73.702,35.391],[73.774,35.471],[73.704,35.4],[73.702,35.391]],[[73.7,35.299],[73.7,35.337],[73.698,35.307],[73.7,35.299]],[[73.73,35.222],[73.704,35.285],[73.724,35.225],[73.73,35.222]],[[73.781,35.241],[73.751,35.228],[73.79,35.238],[73.781,35.241]],[[73.845,35.209],[73.85,35.208],[73.839,35.213],[73.845,35.209]],[[74.011,35.166],[74.008,35.169],[74.032,35.143],[74.011,35.166]],[[74.102,35.14],[74.086,35.149],[74.08,35.151],[74.102,35.14]]],[[[67.315,24.461],[67.327,24.457],[67.327,24.457],[67.315,24.461]]],[[[67.265,24.501],[67.307,24.473],[67.284,24.439],[67.294,24.462],[67.253,24.484],[67.271,24.489],[67.265,24.501]]],[[[67.237,24.616],[67.23,24.64],[67.188,24.645],[67.177,24.663],[67.2,24.679],[67.242,24.659],[67.264,24.668],[67.26,24.646],[67.277,24.638],[67.278,24.666],[67.301,24.664],[67.309,24.64],[67.281,24.634],[67.264,24.596],[67.234,24.611],[67.247,24.626],[67.235,24.639],[67.237,24.616]]],[[[67.346,24.658],[67.314,24.64],[67.305,24.659],[67.321,24.654],[67.336,24.673],[67.346,24.658]]],[[[67.322,24.67],[67.316,24.656],[67.292,24.69],[67.322,24.67]]],[[[67.302,24.671],[67.246,24.679],[67.241,24.678],[67.245,24.66],[67.19,24.691],[67.2,24.717],[67.225,24.723],[67.237,24.71],[67.232,24.727],[67.268,24.74],[67.29,24.768],[67.344,24.756],[67.328,24.729],[67.306,24.745],[67.245,24.701],[67.31,24.739],[67.336,24.704],[67.339,24.739],[67.377,24.716],[67.374,24.698],[67.34,24.686],[67.34,24.7],[67.325,24.669],[67.296,24.697],[67.287,24.692],[67.302,24.671]]],[[[67.191,24.701],[67.173,24.718],[67.237,24.758],[67.249,24.734],[67.2,24.726],[67.191,24.701]]],[[[67.12,24.75],[67.152,24.736],[67.152,24.736],[67.12,24.75]]],[[[67.166,24.773],[67.228,24.783],[67.161,24.758],[67.166,24.773]]],[[[63.855,25.127],[63.826,25.118],[63.826,25.118],[63.855,25.127]]],[[[67.418,24.025],[67.408,24.02],[67.398,24.051],[67.406,24.037],[67.461,24.067],[67.473,24.043],[67.461,24.013],[67.418,24.002],[67.418,24.015],[67.408,24.01],[67.418,24.025]]],[[[67.37,24.128],[67.425,24.128],[67.43,24.098],[67.39,24.077],[67.37,24.128]]],[[[67.298,24.437],[67.378,24.466],[67.413,24.447],[67.396,24.433],[67.388,24.439],[67.298,24.437]]],[[[67.355,24.628],[67.33,24.621],[67.328,24.621],[67.355,24.643],[67.373,24.63],[67.369,24.613],[67.355,24.628]]],[[[67.342,24.672],[67.357,24.686],[67.428,24.692],[67.413,24.672],[67.434,24.641],[67.41,24.655],[67.387,24.646],[67.393,24.665],[67.343,24.644],[67.36,24.665],[67.342,24.672]]],[[[68.165,23.731],[68.142,23.734],[68.16,23.728],[68.158,23.707],[68.133,23.707],[68.106,23.733],[68.109,23.718],[68.07,23.722],[68.067,23.707],[68.056,23.733],[68.088,23.754],[68.085,23.805],[68.127,23.795],[68.094,23.809],[68.103,23.82],[68.183,23.839],[68.195,23.793],[68.165,23.731]]],[[[67.728,23.817],[67.695,23.808],[67.69,23.842],[67.677,23.807],[67.641,23.855],[67.685,23.888],[67.728,23.817]],[[67.671,23.849],[67.673,23.851],[67.673,23.852],[67.671,23.849]]],[[[67.864,23.902],[67.917,23.979],[67.951,23.985],[67.965,24.009],[67.994,24.017],[68.025,24.0],[68.002,23.94],[68.038,23.904],[68.047,23.828],[68.026,23.773],[68.005,23.773],[68.0,23.795],[67.971,23.772],[67.95,23.792],[67.942,23.78],[67.964,23.813],[67.953,23.837],[67.918,23.839],[67.864,23.902]]],[[[67.65,23.865],[67.639,23.895],[67.655,23.931],[67.698,23.928],[67.723,23.879],[67.684,23.888],[67.65,23.865]]],[[[67.548,23.952],[67.59,23.935],[67.574,23.885],[67.546,23.922],[67.53,23.908],[67.548,23.952]]],[[[68.09,23.988],[68.092,23.935],[68.068,23.919],[68.058,23.941],[68.09,23.988]]],[[[68.046,23.911],[68.018,23.937],[68.046,24.021],[68.086,23.997],[68.055,23.945],[68.061,23.919],[68.046,23.911]]],[[[67.439,24.137],[67.445,24.12],[67.427,24.127],[67.439,24.137]]],[[[67.415,24.315],[67.439,24.315],[67.45,24.336],[67.47,24.3],[67.415,24.315]]]]}}]}